[{"OBJECT_NAME":"SSTL S1-4","OBJECT_ID":"2018-071A","EPOCH":"2026-03-09T21:46:24.134592","MEAN_MOTION":14.9621182,"ECCENTRICITY":0.00016592,"INCLINATION":97.5174,"RA_OF_ASC_NODE":304.5632,"ARG_OF_PERICENTER":109.6935,"MEAN_ANOMALY":250.4466,"EPHEMERIS_TYPE":0,"CLASSIFICATION_TYPE":"U","NORAD_CAT_ID":43618,"ELEMENT_SET_NO":999,"REV_AT_EPOCH":40809,"BSTAR":0.00013252792,"MEAN_MOTION_DOT":1.44e-5,"MEAN_MOTION_DDOT":0},{"OBJECT_NAME":"STARLINK-5330","OBJECT_ID":"2023-010P","EPOCH":"2026-03-09T23:31:39.858816","MEAN_MOTION":14.98355549,"ECCENTRICITY":0.00030446,"INCLINATION":70,"RA_OF_ASC_NODE":43.5527,"ARG_OF_PERICENTER":271.5862,"MEAN_ANOMALY":88.4948,"EPHEMERIS_TYPE":0,"CLASSIFICATION_TYPE":"U","NORAD_CAT_ID":55282,"ELEMENT_SET_NO":999,"REV_AT_EPOCH":17282,"BSTAR":-0.00024546115,"MEAN_MOTION_DOT":-3.023e-5,"MEAN_MOTION_DDOT":0}]
